{
  "type": "FeatureCollection",
  "features": [
    {
      "type": "Feature",
      "properties": {
        "norad_id": 24946,
        "name": "IRIDIUM 33",
        "group": "iridium-33-debris",
        "lat": 83.91233306844327,
        "lon": -146.63824014874086,
        "alt_km": 769.7916885401255,
        "timestamp": "2025-12-09T05:43:21.110317+00:00",
        "meta_object_name": "IRIDIUM 33",
        "meta_object_id": "1997-051C",
        "meta_epoch": "2025-12-08T19:14:25.820736",
        "meta_mean_motion": 14.35033415,
        "meta_eccentricity": 0.00066,
        "meta_inclination": 86.387,
        "meta_ra_of_asc_node": 69.8745,
        "meta_arg_of_pericenter": 215.0125,
        "meta_mean_anomaly": 145.0639,
        "meta_ephemeris_type": 0,
        "meta_classification_type": "U",
        "meta_norad_cat_id": 24946,
        "meta_element_set_no": 999,
        "meta_rev_at_epoch": 47778,
        "meta_bstar": 0.00023499,
        "meta_mean_motion_dot": 6.89e-06,
        "meta_mean_motion_ddot": 0,
        "tle_line1": "1 24946U 97051C   25342.80168774  .00000689  00000+0  23499-3 0  9996",
        "tle_line2": "2 24946  86.3870  69.8745 0006600 215.0125 145.0639 14.35033415477786"
      },
      "geometry": {
        "type": "Point",
        "coordinates": [
          -146.63824014874086,
          83.91233306844327
        ]
      }
    },
    {
      "type": "Feature",
      "properties": {
        "norad_id": 33773,
        "name": "IRIDIUM 33 DEB",
        "group": "iridium-33-debris",
        "lat": -51.324370236841894,
        "lon": 57.56416188086734,
        "alt_km": 762.4568109029397,
        "timestamp": "2025-12-09T05:43:21.110366+00:00",
        "meta_object_name": "IRIDIUM 33 DEB",
        "meta_object_id": "1997-051L",
        "meta_epoch": "2025-12-08T18:18:47.833632",
        "meta_mean_motion": 14.43244853,
        "meta_eccentricity": 0.0012141,
        "meta_inclination": 86.4015,
        "meta_ra_of_asc_node": 62.2746,
        "meta_arg_of_pericenter": 158.1711,
        "meta_mean_anomaly": 202.001,
        "meta_ephemeris_type": 0,
        "meta_classification_type": "U",
        "meta_norad_cat_id": 33773,
        "meta_element_set_no": 999,
        "meta_rev_at_epoch": 88290,
        "meta_bstar": 0.00061199,
        "meta_mean_motion_dot": 2.08e-05,
        "meta_mean_motion_ddot": 0,
        "tle_line1": "1 33773U 97051L   25342.76305363  .00002080  00000+0  61199-3 0  9992",
        "tle_line2": "2 33773  86.4015  62.2746 0012141 158.1711 202.0010 14.43244853882909"
      },
      "geometry": {
        "type": "Point",
        "coordinates": [
          57.56416188086734,
          -51.324370236841894
        ]
      }
    },
    {
      "type": "Feature",
      "properties": {
        "norad_id": 33775,
        "name": "IRIDIUM 33 DEB",
        "group": "iridium-33-debris",
        "lat": 54.18811104883348,
        "lon": 56.1040591930587,
        "alt_km": 752.1743571787028,
        "timestamp": "2025-12-09T05:43:21.110383+00:00",
        "meta_object_name": "IRIDIUM 33 DEB",
        "meta_object_id": "1997-051N",
        "meta_epoch": "2025-12-08T16:41:58.751232",
        "meta_mean_motion": 14.41456363,
        "meta_eccentricity": 0.0013822,
        "meta_inclination": 86.3641,
        "meta_ra_of_asc_node": 51.2799,
        "meta_arg_of_pericenter": 167.2208,
        "meta_mean_anomaly": 313.3422,
        "meta_ephemeris_type": 0,
        "meta_classification_type": "U",
        "meta_norad_cat_id": 33775,
        "meta_element_set_no": 999,
        "meta_rev_at_epoch": 88082,
        "meta_bstar": 0.00063946,
        "meta_mean_motion_dot": 2.095e-05,
        "meta_mean_motion_ddot": 0,
        "tle_line1": "1 33775U 97051N   25342.69581888  .00002095  00000+0  63946-3 0  9992",
        "tle_line2": "2 33775  86.3641  51.2799 0013822 167.2208 313.3422 14.41456363880821"
      },
      "geometry": {
        "type": "Point",
        "coordinates": [
          56.1040591930587,
          54.18811104883348
        ]
      }
    },
    {
      "type": "Feature",
      "properties": {
        "norad_id": 33776,
        "name": "IRIDIUM 33 DEB",
        "group": "iridium-33-debris",
        "lat": -34.94759456406322,
        "lon": 79.7271496294508,
        "alt_km": 776.0484770861231,
        "timestamp": "2025-12-09T05:43:21.110397+00:00",
        "meta_object_name": "IRIDIUM 33 DEB",
        "meta_object_id": "1997-051P",
        "meta_epoch": "2025-12-08T20:25:17.631264",
        "meta_mean_motion": 14.38225708,
        "meta_eccentricity": 0.0013879,
        "meta_inclination": 86.4038,
        "meta_ra_of_asc_node": 82.4088,
        "meta_arg_of_pericenter": 203.6045,
        "meta_mean_anomaly": 276.0774,
        "meta_ephemeris_type": 0,
        "meta_classification_type": "U",
        "meta_norad_cat_id": 33776,
        "meta_element_set_no": 999,
        "meta_rev_at_epoch": 88026,
        "meta_bstar": 0.00064815,
        "meta_mean_motion_dot": 1.989e-05,
        "meta_mean_motion_ddot": 0,
        "tle_line1": "1 33776U 97051P   25342.85089851  .00001989  00000+0  64815-3 0  9991",
        "tle_line2": "2 33776  86.4038  82.4088 0013879 203.6045 276.0774 14.38225708880262"
      },
      "geometry": {
        "type": "Point",
        "coordinates": [
          79.7271496294508,
          -34.94759456406322
        ]
      }
    },
    {
      "type": "Feature",
      "properties": {
        "norad_id": 33777,
        "name": "IRIDIUM 33 DEB",
        "group": "iridium-33-debris",
        "lat": -73.72238738595028,
        "lon": -130.74599374415857,
        "alt_km": 711.3915633825527,
        "timestamp": "2025-12-09T05:43:21.110412+00:00",
        "meta_object_name": "IRIDIUM 33 DEB",
        "meta_object_id": "1997-051Q",
        "meta_epoch": "2025-12-08T15:21:32.710752",
        "meta_mean_motion": 14.55568461,
        "meta_eccentricity": 0.0005068,
        "meta_inclination": 86.3783,
        "meta_ra_of_asc_node": 36.9867,
        "meta_arg_of_pericenter": 268.4261,
        "meta_mean_anomaly": 91.6366,
        "meta_ephemeris_type": 0,
        "meta_classification_type": "U",
        "meta_norad_cat_id": 33777,
        "meta_element_set_no": 999,
        "meta_rev_at_epoch": 88474,
        "meta_bstar": 0.0014514,
        "meta_mean_motion_dot": 6.347e-05,
        "meta_mean_motion_ddot": 0,
        "tle_line1": "1 33777U 97051Q   25342.63996193  .00006347  00000+0  14514-2 0  9997",
        "tle_line2": "2 33777  86.3783  36.9867 0005068 268.4261  91.6366 14.55568461884748"
      },
      "geometry": {
        "type": "Point",
        "coordinates": [
          -130.74599374415857,
          -73.72238738595028
        ]
      }
    },
    {
      "type": "Feature",
      "properties": {
        "norad_id": 33850,
        "name": "IRIDIUM 33 DEB",
        "group": "iridium-33-debris",
        "lat": 26.68846824406933,
        "lon": 33.52820159991242,
        "alt_km": 757.4190395968271,
        "timestamp": "2025-12-09T05:43:21.110426+00:00",
        "meta_object_name": "IRIDIUM 33 DEB",
        "meta_object_id": "1997-051T",
        "meta_epoch": "2025-12-08T15:08:48.189120",
        "meta_mean_motion": 14.4213501,
        "meta_eccentricity": 0.0011834,
        "meta_inclination": 86.3419,
        "meta_ra_of_asc_node": 31.9463,
        "meta_arg_of_pericenter": 173.6819,
        "meta_mean_anomaly": 302.206,
        "meta_ephemeris_type": 0,
        "meta_classification_type": "U",
        "meta_norad_cat_id": 33850,
        "meta_element_set_no": 999,
        "meta_rev_at_epoch": 88093,
        "meta_bstar": 0.00062881,
        "meta_mean_motion_dot": 2.088e-05,
        "meta_mean_motion_ddot": 0,
        "tle_line1": "1 33850U 97051T   25342.63111330  .00002088  00000+0  62881-3 0  9990",
        "tle_line2": "2 33850  86.3419  31.9463 0011834 173.6819 302.2060 14.42135010880932"
      },
      "geometry": {
        "type": "Point",
        "coordinates": [
          33.52820159991242,
          26.68846824406933
        ]
      }
    },
    {
      "type": "Feature",
      "properties": {
        "norad_id": 33853,
        "name": "IRIDIUM 33 DEB",
        "group": "iridium-33-debris",
        "lat": -51.65973347405218,
        "lon": 176.4228528450764,
        "alt_km": 758.4786389134906,
        "timestamp": "2025-12-09T05:43:21.110440+00:00",
        "meta_object_name": "IRIDIUM 33 DEB",
        "meta_object_id": "1997-051W",
        "meta_epoch": "2025-12-08T12:11:22.986816",
        "meta_mean_motion": 13.99022624,
        "meta_eccentricity": 0.02069228,
        "meta_inclination": 85.9997,
        "meta_ra_of_asc_node": 351.667,
        "meta_arg_of_pericenter": 248.9226,
        "meta_mean_anomaly": 266.3481,
        "meta_ephemeris_type": 0,
        "meta_classification_type": "U",
        "meta_norad_cat_id": 33853,
        "meta_element_set_no": 999,
        "meta_rev_at_epoch": 85286,
        "meta_bstar": 0.0029663214,
        "meta_mean_motion_dot": 5.167e-05,
        "meta_mean_motion_ddot": 0,
        "tle_line1": "1 33853U 97051W   25342.50790494  .00005167  00000+0  29663-2 0  9994",
        "tle_line2": "2 33853  85.9997 351.6670 0206922 248.9226 266.3481 13.99022624852860"
      },
      "geometry": {
        "type": "Point",
        "coordinates": [
          176.4228528450764,
          -51.65973347405218
        ]
      }
    }
  ]
}